Name,Address,Latitude,Longitude
Circle K #2720874,404 Coleman Blvd Mount Pleasant SC 29464,32.790679,-79.8763866
Bp,650 Coleman Blvd Mount Pleasant SC 29464,32.7916961,-79.8727993
Scotchman #166,323 Coleman Blvd Mount Pleasant SC 29464,32.7903908,-79.8779396
Circle K #0840,1402 Ben Sawyer Blvd Mount Pleasant SC 29464,32.7936025,-79.8557575
A Plus Mini Market,1265 Ben Sawyer Blvd Mount Pleasant SC 29464,32.793665,-79.8575953
Circle K #5122,685 Johnnie Dodds Blvd Mount Pleasant SC 29464,32.8076546,-79.8786177
Circle K #5130,199 W Coleman Blvd Mount Pleasant SC 29464,32.7974316,-79.8974921
Fuel Express #2,235 Mathis Ferry Rd Mount Pleasant SC 29464,32.8058028,-79.8912594
Exxon Tiger Mart,1325 Bowman Rd Mount Pleasant SC 29464,32.8083457,-79.8512744
Scotchman #102,508 Highway 17 Byp Mount Pleasant SC 29464,32.8684707,-79.7812988
Circle K #8089,1195 Mathis Ferry Rd Mount Pleasant SC 29464,32.8178665,-79.8612707
A Plus Mini Market,1515 N Highway 17 Mount Pleasant SC 29464,32.8173785,-79.8446616
Refuel #14,1181 Venning Rd Mount Pleasant SC 29464,32.8199295,-79.8365678
Sunoco,1683 N Highway 17 Mount Pleasant SC 29464,32.8228855,-79.8393907
Circle K #2721521,588 E Bay St Charleston SC 29403,32.793729,-79.931727
Circle K #5124,320 Meeting St Charleston SC 29403,32.787021,-79.934143
Scotchman #3167,420 Meeting St Charleston SC 29403,32.7930524,-79.9382451
Southern Gas And Fuel,1865 N Highway 17 Mount Pleasant SC 29464,32.8303451,-79.8314761
Shell,699 Long Point Rd Mount Pleasant SC 29464,32.8423046,-79.8540072
Exxon Tiger Mart,701 Long Point Rd Mount Pleasant SC 29464,32.8423711,-79.8530292
Circle K #1522,1305 Long Grove Dr Mount Pleasant SC 29464,32.8228417,-79.8193084
Circle K #1520,130 Rutledge Ave Charleston SC 29403,32.7839194,-79.9440154
Circle K #2723296,2171 N Highway 17 Mount Pleasant SC 29466,32.8398305,-79.8183808
Circle K #2720873,2846 Highway 17 N Mount Pleasant SC 29466,32.8582419,-79.7972784
Circle K #3850,1401 Joe Rouse Rd Mount Pleasant SC 29466,32.8785219,-79.807091
Refuel,3050 Ironclad Alley Mount Pleasant SC 29466,32.8637503,-79.7868566
Blue Water #20,3340 South Morgans Point Mount Pleasant SC 29466,32.872,-79.7753387
Costco #1319,3525 Park Avenue Blvd Mount Pleasant SC 29466,32.8816282,-79.7708353